start=new Date('2023-03-16T00:00:00.000Z').valueOf();
sats=[{"EPOCH":"2023-03-15T20:45:22.669344","REF_FRAME":"TEME","COUNTRY_CODE":"US","MEAN_MOTION":"15.06389518","OBJECT_ID":"2019-074M","MEAN_ANOMALY":"278.0997","BSTAR":"-0.00039751000000","MEAN_MOTION_DDOT":"0.0000000000000","APOAPSIS":"549.127","OBJECT_NAME":"STARLINK-1019","LAUNCH_DATE":"2019-11-11","TLE_LINE2":"2 44724  53.0554  39.0291 0002717  82.0300 278.0997 15.06389518184482","RCS_SIZE":"LARGE","CENTER_NAME":"EARTH","MEAN_ELEMENT_THEORY":"SGP4","OBJECT_TYPE":"PAYLOAD","SITE":"AFETR","PERIAPSIS":"545.364","EPHEMERIS_TYPE":"0","TLE_LINE1":"1 44724U 19074M   23074.86484571 -.00006197  00000-0 -39751-3 0  9994","ARG_OF_PERICENTER":"82.0300","SEMIMAJOR_AXIS":"6925.381","ELEMENT_SET_NO":"999","MEAN_MOTION_DOT":"-0.00006197","REV_AT_EPOCH":"18448","CLASSIFICATION_TYPE":"U","ECCENTRICITY":"0.00027170","TIME_SYSTEM":"UTC","RA_OF_ASC_NODE":"39.0291","PERIOD":"95.593","DECAY_DATE":null,"GP_ID":"228204433","NORAD_CAT_ID":"44724","FILE":"3861599","INCLINATION":"53.0554"},{"RA_OF_ASC_NODE":"58.7073","PERIOD":"95.592","DECAY_DATE":null,"GP_ID":"228205183","FILE":"3861599","NORAD_CAT_ID":"44725","INCLINATION":"53.0535","SEMIMAJOR_AXIS":"6925.345","ARG_OF_PERICENTER":"98.0481","ELEMENT_SET_NO":"999","MEAN_MOTION_DOT":"0.00012097","REV_AT_EPOCH":"18421","CLASSIFICATION_TYPE":"U","ECCENTRICITY":"0.00022970","TIME_SYSTEM":"UTC","CENTER_NAME":"EARTH","RCS_SIZE":"LARGE","MEAN_ELEMENT_THEORY":"SGP4","OBJECT_TYPE":"PAYLOAD","SITE":"AFETR","PERIAPSIS":"545.619","EPHEMERIS_TYPE":"0","TLE_LINE1":"1 44725U 19074N   23074.93674348  .00012097  00000-0  82958-3 0  9997","EPOCH":"2023-03-15T22:28:54.636672","REF_FRAME":"TEME","COUNTRY_CODE":"US","OBJECT_ID":"2019-074N","MEAN_MOTION":"15.06401083","MEAN_ANOMALY":"262.0769","BSTAR":"0.00082958000000","MEAN_MOTION_DDOT":"0.0000000000000","APOAPSIS":"548.801","OBJECT_NAME":"STARLINK-1020","LAUNCH_DATE":"2019-11-11","TLE_LINE2":"2 44725  53.0535  58.7073 0002297  98.0481 262.0769 15.06401083184211"},{"TLE_LINE1":"1 44726U 19074P   23074.92753174  .00026743  00000-0  18068-2 0  9995","EPHEMERIS_TYPE":"0","SITE":"AFETR","PERIAPSIS":"546.425","OBJECT_TYPE":"PAYLOAD","MEAN_ELEMENT_THEORY":"SGP4","RCS_SIZE":"LARGE","CENTER_NAME":"EARTH","TLE_LINE2":"2 44726  53.0575  38.7494 0001079  65.4138 294.6964 15.06413440184493","LAUNCH_DATE":"2019-11-11","OBJECT_NAME":"STARLINK-1021","APOAPSIS":"547.920","MEAN_MOTION_DDOT":"0.0000000000000","BSTAR":"0.00180680000000","MEAN_ANOMALY":"294.6964","OBJECT_ID":"2019-074P","MEAN_MOTION":"15.06413440","REF_FRAME":"TEME","COUNTRY_CODE":"US","EPOCH":"2023-03-15T22:15:38.742336","INCLINATION":"53.0575","NORAD_CAT_ID":"44726","FILE":"3861599","GP_ID":"228203932","DECAY_DATE":null,"PERIOD":"95.591","RA_OF_ASC_NODE":"38.7494","TIME_SYSTEM":"UTC","ECCENTRICITY":"0.00010790","CLASSIFICATION_TYPE":"U","REV_AT_EPOCH":"18449","MEAN_MOTION_DOT":"0.00026743","ELEMENT_SET_NO":"999","ARG_OF_PERICENTER":"65.4138","SEMIMAJOR_AXIS":"6925.307"},{"INCLINATION":"53.0531","NORAD_CAT_ID":"44727","FILE":"3861599","GP_ID":"228203683","DECAY_DATE":null,"PERIOD":"95.591","RA_OF_ASC_NODE":"78.8848","TIME_SYSTEM":"UTC","ECCENTRICITY":"0.00014600","CLASSIFICATION_TYPE":"U","REV_AT_EPOCH":"18394","MEAN_MOTION_DOT":"-0.00003428","ELEMENT_SET_NO":"999","ARG_OF_PERICENTER":"104.3371","SEMIMAJOR_AXIS":"6925.305","TLE_LINE1":"1 44727U 19074Q   23074.89708613 -.00003428  00000-0 -21128-3 0  9999","EPHEMERIS_TYPE":"0","PERIAPSIS":"546.159","SITE":"AFETR","MEAN_ELEMENT_THEORY":"SGP4","OBJECT_TYPE":"PAYLOAD","RCS_SIZE":"LARGE","CENTER_NAME":"EARTH","TLE_LINE2":"2 44727  53.0531  78.8848 0001460 104.3371 255.7780 15.06414083183947","OBJECT_NAME":"STARLINK-1022","LAUNCH_DATE":"2019-11-11","APOAPSIS":"548.181","MEAN_MOTION_DDOT":"0.0000000000000","BSTAR":"-0.00021128000000","MEAN_ANOMALY":"255.7780","MEAN_MOTION":"15.06414083","OBJECT_ID":"2019-074Q","REF_FRAME":"TEME","COUNTRY_CODE":"US","EPOCH":"2023-03-15T21:31:48.241632"},{"ARG_OF_PERICENTER":"130.1960","SEMIMAJOR_AXIS":"6845.476","ELEMENT_SET_NO":"999","MEAN_MOTION_DOT":"0.00133807","REV_AT_EPOCH":"18459","CLASSIFICATION_TYPE":"U","ECCENTRICITY":"0.00051600","TIME_SYSTEM":"UTC","RA_OF_ASC_NODE":"24.2575","PERIOD":"93.943","DECAY_DATE":null,"GP_ID":"228146034","NORAD_CAT_ID":"44729","FILE":"3861350","INCLINATION":"53.0217","EPOCH":"2023-03-15T06:12:36.167616","COUNTRY_CODE":"US","REF_FRAME":"TEME","MEAN_MOTION":"15.32841531","OBJECT_ID":"2019-074S","MEAN_ANOMALY":"229.9492","BSTAR":"0.00409650000000","MEAN_MOTION_DDOT":"0.0000000000000","APOAPSIS":"470.874","OBJECT_NAME":"STARLINK-1024","LAUNCH_DATE":"2019-11-11","TLE_LINE2":"2 44729  53.0217  24.2575 0005160 130.1960 229.9492 15.32841531184590","CENTER_NAME":"EARTH","RCS_SIZE":"LARGE","OBJECT_TYPE":"PAYLOAD","MEAN_ELEMENT_THEORY":"SGP4","PERIAPSIS":"463.809","SITE":"AFETR","EPHEMERIS_TYPE":"0","TLE_LINE1":"1 44729U 19074S   23074.25875194  .00133807  00000-0  40965-2 0  9992"},{"MEAN_MOTION_DDOT":"0.0000000000000","BSTAR":"0.00258120000000","MEAN_ANOMALY":"228.5943","TLE_LINE2":"2 44731  53.0546  41.3797 0001730 131.5195 228.5943 15.06424998184577","OBJECT_NAME":"STARLINK-1026","LAUNCH_DATE":"2019-11-11","APOAPSIS":"548.335","EPOCH":"2023-03-15T08:11:41.654976","MEAN_MOTION":"15.06424998","OBJECT_ID":"2019-074U","COUNTRY_CODE":"US","REF_FRAME":"TEME","TLE_LINE1":"1 44731U 19074U   23074.34145434  .00038402  00000-0  25812-2 0  9991","MEAN_ELEMENT_THEORY":"SGP4","OBJECT_TYPE":"PAYLOAD","RCS_SIZE":"LARGE","CENTER_NAME":"EARTH","EPHEMERIS_TYPE":"0","SITE":"AFETR","PERIAPSIS":"545.939","CLASSIFICATION_TYPE":"U","REV_AT_EPOCH":"18457","TIME_SYSTEM":"UTC","ECCENTRICITY":"0.00017300","SEMIMAJOR_AXIS":"6925.272","ARG_OF_PERICENTER":"131.5195","MEAN_MOTION_DOT":"0.00038402","ELEMENT_SET_NO":"999","GP_ID":"228181905","INCLINATION":"53.0546","NORAD_CAT_ID":"44731","FILE":"3861462","PERIOD":"95.591","RA_OF_ASC_NODE":"41.3797","DECAY_DATE":null},{"ECCENTRICITY":"0.00025710","TIME_SYSTEM":"UTC","REV_AT_EPOCH":"18411","CLASSIFICATION_TYPE":"U","ELEMENT_SET_NO":"999","MEAN_MOTION_DOT":"0.00028286","SEMIMAJOR_AXIS":"6925.232","ARG_OF_PERICENTER":"91.5510","NORAD_CAT_ID":"44732","FILE":"3861350","INCLINATION":"53.0543","GP_ID":"228147035","DECAY_DATE":null,"RA_OF_ASC_NODE":"61.7369","PERIOD":"95.590","APOAPSIS":"548.877","OBJECT_NAME":"STARLINK-1027","LAUNCH_DATE":"2019-11-11","TLE_LINE2":"2 44732  53.0543  61.7369 0002571  91.5510 268.5773 15.06438043184117","MEAN_ANOMALY":"268.5773","BSTAR":"0.00190820000000","MEAN_MOTION_DDOT":"0.0000000000000","REF_FRAME":"TEME","COUNTRY_CODE":"US","OBJECT_ID":"2019-074V","MEAN_MOTION":"15.06438043","EPOCH":"2023-03-15T06:17:35.675808","TLE_LINE1":"1 44732U 19074V   23074.26221847  .00028286  00000-0  19082-2 0  9997","PERIAPSIS":"545.316","SITE":"AFETR","EPHEMERIS_TYPE":"0","RCS_SIZE":"LARGE","CENTER_NAME":"EARTH","OBJECT_TYPE":"PAYLOAD","MEAN_ELEMENT_THEORY":"SGP4"},{"REV_AT_EPOCH":"18449","CLASSIFICATION_TYPE":"U","ECCENTRICITY":"0.00014580","TIME_SYSTEM":"UTC","ARG_OF_PERICENTER":"119.2375","SEMIMAJOR_AXIS":"6925.329","ELEMENT_SET_NO":"999","MEAN_MOTION_DOT":"0.00019204","GP_ID":"228204183","FILE":"3861599","NORAD_CAT_ID":"44733","INCLINATION":"53.0573","RA_OF_ASC_NODE":"38.7653","PERIOD":"95.592","DECAY_DATE":null,"MEAN_ANOMALY":"240.8759","BSTAR":"0.00130440000000","MEAN_MOTION_DDOT":"0.0000000000000","APOAPSIS":"548.203","LAUNCH_DATE":"2019-11-11","OBJECT_NAME":"STARLINK-1028","TLE_LINE2":"2 44733  53.0573  38.7653 0001458 119.2375 240.8759 15.06406491184491","EPOCH":"2023-03-15T22:10:19.327584","COUNTRY_CODE":"US","REF_FRAME":"TEME","MEAN_MOTION":"15.06406491","OBJECT_ID":"2019-074W","TLE_LINE1":"1 44733U 19074W   23074.92383481  .00019204  00000-0  13044-2 0  9996","CENTER_NAME":"EARTH","RCS_SIZE":"LARGE","MEAN_ELEMENT_THEORY":"SGP4","OBJECT_TYPE":"PAYLOAD","PERIAPSIS":"546.184","SITE":"AFETR","EPHEMERIS_TYPE":"0"},{"CLASSIFICATION_TYPE":"U","REV_AT_EPOCH":"18559","TIME_SYSTEM":"UTC","ECCENTRICITY":"0.00012930","ARG_OF_PERICENTER":"112.1818","SEMIMAJOR_AXIS":"6925.299","MEAN_MOTION_DOT":"0.00025942","ELEMENT_SET_NO":"999","GP_ID":"228204434","INCLINATION":"53.0536","NORAD_CAT_ID":"44734","FILE":"3861599","PERIOD":"95.591","RA_OF_ASC_NODE":"318.7018","DECAY_DATE":null,"MEAN_MOTION_DDOT":"0.0000000000000","BSTAR":"0.00175330000000","MEAN_ANOMALY":"247.9309","TLE_LINE2":"2 44734  53.0536 318.7018 0001293 112.1818 247.9309 15.06416296185593","OBJECT_NAME":"STARLINK-1029","LAUNCH_DATE":"2019-11-11","APOAPSIS":"548.059","EPOCH":"2023-03-15T22:31:36.671232","MEAN_MOTION":"15.06416296","OBJECT_ID":"2019-074X","REF_FRAME":"TEME","COUNTRY_CODE":"US","TLE_LINE1":"1 44734U 19074X   23074.93861888  .00025942  00000-0  17533-2 0  9993","OBJECT_TYPE":"PAYLOAD","MEAN_ELEMENT_THEORY":"SGP4","CENTER_NAME":"EARTH","RCS_SIZE":"LARGE","EPHEMERIS_TYPE":"0","SITE":"AFETR","PERIAPSIS":"546.268"},{"ELEMENT_SET_NO":"999","MEAN_MOTION_DOT":"0.00007509","ARG_OF_PERICENTER":"105.7854","SEMIMAJOR_AXIS":"6925.381","ECCENTRICITY":"0.00018000","TIME_SYSTEM":"UTC","REV_AT_EPOCH":"18421","CLASSIFICATION_TYPE":"U","DECAY_DATE":null,"RA_OF_ASC_NODE":"58.7205","PERIOD":"95.593","FILE":"3861599","NORAD_CAT_ID":"44735","INCLINATION":"53.0530","GP_ID":"228205184","COUNTRY_CODE":"US","REF_FRAME":"TEME","MEAN_MOTION":"15.06389398","OBJECT_ID":"2019-074Y","EPOCH":"2023-03-15T22:23:36.165408","APOAPSIS":"548.493","LAUNCH_DATE":"2019-11-11","OBJECT_NAME":"STARLINK-1030","TLE_LINE2":"2 44735  53.0530  58.7205 0001800 105.7854 254.3333 15.06389398184218","MEAN_ANOMALY":"254.3333","BSTAR":"0.00052258000000","MEAN_MOTION_DDOT":"0.0000000000000","SITE":"AFETR","PERIAPSIS":"545.999","EPHEMERIS_TYPE":"0","CENTER_NAME":"EARTH","RCS_SIZE":"LARGE","MEAN_ELEMENT_THEORY":"SGP4","OBJECT_TYPE":"PAYLOAD","TLE_LINE1":"1 44735U 19074Y   23074.93305747  .00007509  00000-0  52258-3 0  9994"}];
